{"type": "FeatureCollection", "features": [ {"type": "Feature", "properties": {"norad_id": 66591, "name": "STARLINK-36058", "group": "last-30-days", "lat": 15.566234432059142, "lon": -91.22485139713488, "alt_km": 330.68199435262613, "timestamp": "2025-12-02T21:34:00.043492+00:00", "meta": {"OBJECT_NAME": "STARLINK-36058", "OBJECT_ID": "2025-270D", "EPOCH": "2025-12-02T12:00:05.998752", "MEAN_MOTION": 15.80604863, "ECCENTRICITY": 0.0001731, "INCLINATION": 42.9987, "RA_OF_ASC_NODE": 253.8158, "ARG_OF_PERICENTER": 267.3802, "MEAN_ANOMALY": 6.3138, "EPHEMERIS_TYPE": 0, "CLASSIFICATION_TYPE": "U", "NORAD_CAT_ID": 66591, "ELEMENT_SET_NO": 999, "REV_AT_EPOCH": 275, "BSTAR": -0.0092505, "MEAN_MOTION_DOT": -0.0159486, "MEAN_MOTION_DDOT": 0}, "tle": {"line1": "1 66591U 25270D   25336.50006943 -.01594860  00000+0 -92505-2 0  9996", "line2": "2 66591  42.9987 253.8158 0001731 267.3802   6.3138 15.80604863  2756"}}, "geometry": {"type": "Point", "coordinates": [-91.22485139713488, 15.566234432059142]}}, {"type": "Feature", "properties": {"norad_id": 66592, "name": "STARLINK-36066", "group": "last-30-days", "lat": 16.846779782737265, "lon": -89.66093767190542, "alt_km": 330.69128536817334, "timestamp": "2025-12-02T21:34:00.043502+00:00", "meta": {"OBJECT_NAME": "STARLINK-36066", "OBJECT_ID": "2025-270E", "EPOCH": "2025-12-02T12:00:05.998752", "MEAN_MOTION": 15.80611709, "ECCENTRICITY": 0.0001853, "INCLINATION": 42.9987, "RA_OF_ASC_NODE": 253.8109, "ARG_OF_PERICENTER": 262.8582, "MEAN_ANOMALY": 12.8095, "EPHEMERIS_TYPE": 0, "CLASSIFICATION_TYPE": "U", "NORAD_CAT_ID": 66592, "ELEMENT_SET_NO": 999, "REV_AT_EPOCH": 265, "BSTAR": -0.0093196, "MEAN_MOTION_DOT": -0.01605784, "MEAN_MOTION_DDOT": 0}, "tle": {"line1": "1 66592U 25270E   25336.50006943 -.01605784  00000+0 -93196-2 0  9992", "line2": "2 66592  42.9987 253.8109 0001853 262.8582  12.8095 15.80611709  2653"}}, "geometry": {"type": "Point", "coordinates": [-89.66093767190542, 16.846779782737265]}}, {"type": "Feature", "properties": {"norad_id": 66593, "name": "STARLINK-36031", "group": "last-30-days", "lat": 18.203000324841305, "lon": -87.96467050413759, "alt_km": 330.5486677978997, "timestamp": "2025-12-02T21:34:00.043518+00:00", "meta": {"OBJECT_NAME": "STARLINK-36031", "OBJECT_ID": "2025-270F", "EPOCH": "2025-12-02T12:00:05.998752", "MEAN_MOTION": 15.80607323, "ECCENTRICITY": 0.0001724, "INCLINATION": 42.9989, "RA_OF_ASC_NODE": 253.8057, "ARG_OF_PERICENTER": 264.0395, "MEAN_ANOMALY": 13.7718, "EPHEMERIS_TYPE": 0, "CLASSIFICATION_TYPE": "U", "NORAD_CAT_ID": 66593, "ELEMENT_SET_NO": 999, "REV_AT_EPOCH": 275, "BSTAR": -0.0095334, "MEAN_MOTION_DOT": -0.01637314, "MEAN_MOTION_DDOT": 0}, "tle": {"line1": "1 66593U 25270F   25336.50006943 -.01637314  00000+0 -95334-2 0  9993", "line2": "2 66593  42.9989 253.8057 0001724 264.0395  13.7718 15.80607323  2751"}}, "geometry": {"type": "Point", "coordinates": [-87.96467050413759, 18.203000324841305]}}, {"type": "Feature", "properties": {"norad_id": 66594, "name": "STARLINK-36032", "group": "last-30-days", "lat": 19.576041306500546, "lon": -86.2003720308293, "alt_km": 330.72033609826303, "timestamp": "2025-12-02T21:34:00.043530+00:00", "meta": {"OBJECT_NAME": "STARLINK-36032", "OBJECT_ID": "2025-270G", "EPOCH": "2025-12-02T12:00:05.998752", "MEAN_MOTION": 15.80584085, "ECCENTRICITY": 0.0001711, "INCLINATION": 42.9989, "RA_OF_ASC_NODE": 253.7999, "ARG_OF_PERICENTER": 254.1499, "MEAN_ANOMALY": 25.8792, "EPHEMERIS_TYPE": 0, "CLASSIFICATION_TYPE": "U", "NORAD_CAT_ID": 66594, "ELEMENT_SET_NO": 999, "REV_AT_EPOCH": 249, "BSTAR": -0.0097032, "MEAN_MOTION_DOT": -0.01660941, "MEAN_MOTION_DDOT": 0}, "tle": {"line1": "1 66594U 25270G   25336.50006943 -.01660941  00000+0 -97032-2 0  9993", "line2": "2 66594  42.9989 253.7999 0001711 254.1499  25.8792 15.80584085  2493"}}, "geometry": {"type": "Point", "coordinates": [-86.2003720308293, 19.576041306500546]}}, {"type": "Feature", "properties": {"norad_id": 66595, "name": "STARLINK-35711", "group": "last-30-days", "lat": 20.915609845228662, "lon": -84.42711957973772, "alt_km": 330.54002725744795, "timestamp": "2025-12-02T21:34:00.043540+00:00", "meta": {"OBJECT_NAME": "STARLINK-35711", "OBJECT_ID": "2025-270H", "EPOCH": "2025-12-02T12:00:05.998752", "MEAN_MOTION": 15.80556312, "ECCENTRICITY": 0.0001797, "INCLINATION": 42.9989, "RA_OF_ASC_NODE": 253.7943, "ARG_OF_PERICENTER": 261.399, "MEAN_ANOMALY": 20.8139, "EPHEMERIS_TYPE": 0, "CLASSIFICATION_TYPE": "U", "NORAD_CAT_ID": 66595, "ELEMENT_SET_NO": 999, "REV_AT_EPOCH": 286, "BSTAR": -0.009791, "MEAN_MOTION_DOT": -0.01672116, "MEAN_MOTION_DDOT": 0}, "tle": {"line1": "1 66595U 25270H   25336.50006943 -.01672116  00000+0 -97910-2 0  9996", "line2": "2 66595  42.9989 253.7943 0001797 261.3990  20.8139 15.80556312  2866"}}, "geometry": {"type": "Point", "coordinates": [-84.42711957973772, 20.915609845228662]}}, {"type": "Feature", "properties": {"norad_id": 66596, "name": "STARLINK-35811", "group": "last-30-days", "lat": 22.200027404277755, "lon": -82.6724038366711, "alt_km": 330.3984615002246, "timestamp": "2025-12-02T21:34:00.043550+00:00", "meta": {"OBJECT_NAME": "STARLINK-35811", "OBJECT_ID": "2025-270J", "EPOCH": "2025-12-02T12:00:05.998752", "MEAN_MOTION": 15.80537689, "ECCENTRICITY": 0.0001759, "INCLINATION": 42.9986, "RA_OF_ASC_NODE": 253.7888, "ARG_OF_PERICENTER": 262.8527, "MEAN_ANOMALY": 21.4715, "EPHEMERIS_TYPE": 0, "CLASSIFICATION_TYPE": "U", "NORAD_CAT_ID": 66596, "ELEMENT_SET_NO": 999, "REV_AT_EPOCH": 286, "BSTAR": -0.0098477, "MEAN_MOTION_DOT": -0.01713975, "MEAN_MOTION_DDOT": 0}, "tle": {"line1": "1 66596U 25270J   25336.50006943 -.01713975  00000+0 -98477-2 0  9995", "line2": "2 66596  42.9986 253.7888 0001759 262.8527  21.4715 15.80537689  2865"}}, "geometry": {"type": "Point", "coordinates": [-82.6724038366711, 22.200027404277755]}}, {"type": "Feature", "properties": {"norad_id": 66597, "name": "STARLINK-35820", "group": "last-30-days", "lat": 23.398056535898583, "lon": -80.98204405807832, "alt_km": 330.25978537451374, "timestamp": "2025-12-02T21:34:00.043562+00:00", "meta": {"OBJECT_NAME": "STARLINK-35820", "OBJECT_ID": "2025-270K", "EPOCH": "2025-12-02T12:00:05.998752", "MEAN_MOTION": 15.80535664, "ECCENTRICITY": 0.0001828, "INCLINATION": 42.9989, "RA_OF_ASC_NODE": 253.784, "ARG_OF_PERICENTER": 263.7676, "MEAN_ANOMALY": 22.5263, "EPHEMERIS_TYPE": 0, "CLASSIFICATION_TYPE": "U", "NORAD_CAT_ID": 66597, "ELEMENT_SET_NO": 999, "REV_AT_EPOCH": 286, "BSTAR": -0.0098472, "MEAN_MOTION_DOT": -0.01713811, "MEAN_MOTION_DDOT": 0}, "tle": {"line1": "1 66597U 25270K   25336.50006943 -.01713811  00000+0 -98472-2 0  9990", "line2": "2 66597  42.9989 253.7840 0001828 263.7676  22.5263 15.80535664  2860"}}, "geometry": {"type": "Point", "coordinates": [-80.98204405807832, 23.398056535898583]}}, {"type": "Feature", "properties": {"norad_id": 66598, "name": "STARLINK-35981", "group": "last-30-days", "lat": 24.649838808281118, "lon": -79.15318148656495, "alt_km": 330.37354411080105, "timestamp": "2025-12-02T21:34:00.043592+00:00", "meta": {"OBJECT_NAME": "STARLINK-35981", "OBJECT_ID": "2025-270L", "EPOCH": "2025-12-02T12:00:05.998752", "MEAN_MOTION": 15.80525016, "ECCENTRICITY": 0.0001823, "INCLINATION": 42.9987, "RA_OF_ASC_NODE": 253.7785, "ARG_OF_PERICENTER": 255.0781, "MEAN_ANOMALY": 33.3416, "EPHEMERIS_TYPE": 0, "CLASSIFICATION_TYPE": "U", "NORAD_CAT_ID": 66598, "ELEMENT_SET_NO": 999, "REV_AT_EPOCH": 259, "BSTAR": -0.010015, "MEAN_MOTION_DOT": -0.01738788, "MEAN_MOTION_DDOT": 0}, "tle": {"line1": "1 66598U 25270L   25336.50006943 -.01738788  00000+0 -10015-1 0  9997", "line2": "2 66598  42.9987 253.7785 0001823 255.0781  33.3416 15.80525016  2593"}}, "geometry": {"type": "Point", "coordinates": [-79.15318148656495, 24.649838808281118]}}, {"type": "Feature", "properties": {"norad_id": 66599, "name": "STARLINK-35930", "group": "last-30-days", "lat": 25.779022039688034, "lon": -77.44193489159109, "alt_km": 330.16801107220635, "timestamp": "2025-12-02T21:34:00.043603+00:00", "meta": {"OBJECT_NAME": "STARLINK-35930", "OBJECT_ID": "2025-270M", "EPOCH": "2025-12-02T12:00:05.998752", "MEAN_MOTION": 15.8053815, "ECCENTRICITY": 0.000183, "INCLINATION": 42.9989, "RA_OF_ASC_NODE": 253.774, "ARG_OF_PERICENTER": 256.9468, "MEAN_ANOMALY": 33.3752, "EPHEMERIS_TYPE": 0, "CLASSIFICATION_TYPE": "U", "NORAD_CAT_ID": 66599, "ELEMENT_SET_NO": 999, "REV_AT_EPOCH": 275, "BSTAR": -0.010043, "MEAN_MOTION_DOT": -0.01744002, "MEAN_MOTION_DDOT": 0}, "tle": {"line1": "1 66599U 25270M   25336.50006943 -.01744002  00000+0 -10043-1 0  9995", "line2": "2 66599  42.9989 253.7740 0001830 256.9468  33.3752 15.80538150  2751"}}, "geometry": {"type": "Point", "coordinates": [-77.44193489159109, 25.779022039688034]}}, {"type": "Feature", "properties": {"norad_id": 66600, "name": "STARLINK-35980", "group": "last-30-days", "lat": 26.965899845786282, "lon": -75.57264480805713, "alt_km": 329.9533734994757, "timestamp": "2025-12-02T21:34:00.043616+00:00", "meta": {"OBJECT_NAME": "STARLINK-35980", "OBJECT_ID": "2025-270N", "EPOCH": "2025-12-02T12:00:05.998752", "MEAN_MOTION": 15.80520598, "ECCENTRICITY": 0.0001755, "INCLINATION": 42.9989, "RA_OF_ASC_NODE": 253.7686, "ARG_OF_PERICENTER": 261.2456, "MEAN_ANOMALY": 31.1599, "EPHEMERIS_TYPE": 0, "CLASSIFICATION_TYPE": "U", "NORAD_CAT_ID": 66600, "ELEMENT_SET_NO": 999, "REV_AT_EPOCH": 265, "BSTAR": -0.01009, "MEAN_MOTION_DOT": -0.01749918, "MEAN_MOTION_DDOT": 0}, "tle": {"line1": "1 66600U 25270N   25336.50006943 -.01749918  00000+0 -10090-1 0  9991", "line2": "2 66600  42.9989 253.7686 0001755 261.2456  31.1599 15.80520598  2656"}}, "geometry": {"type": "Point", "coordinates": [-75.57264480805713, 26.965899845786282]}}]}